ZIYUAN 3 (ZY 3)         
1 38046U 12001A   17295.46798821  .00000988  00000-0  47522-4 0  9993
2 38046  97.5244   2.5346 0002051  35.3623  80.4521 15.21167254321307
RISAT-1                 
1 38248U 12017A   17295.53152380  .00000156  00000-0  13780-4 0  9992
2 38248  97.5742 301.5961 0004062 350.7443 122.8662 15.09269892302445
ARIRANG-3 (KOMPSAT-3)   
1 38338U 12025B   17295.47052515  .00000090  00000-0  27484-4 0  9996
2 38338  98.1473 231.6879 0009022 298.1863  61.8415 14.61600899289777
KANOPUS-V 1             
1 38707U 12039A   17295.52094635  .00000377  00000-0  20468-4 0  9999
2 38707  97.4494 212.0230 0001943  69.3632  31.2026 15.20309911291401
EXACTVIEW-1 (ADS-1B)    
1 38709U 12039C   17295.52101731  .00000014  00000-0  26981-4 0  9991
2 38709  99.1126 276.5337 0009853 247.2072 112.8062 14.23955628272959
SPOT 6                  
1 38755U 12047A   17295.47829148 -.00000454  00000-0 -87901-4 0  9993
2 38755  98.2074   1.3699 0001716  86.6666 273.4769 14.58537890272493
PLEIADES 1B             
1 39019U 12068A   17295.49659509  .00000008  00000-0  11608-4 0  9998
2 39019  98.1920   8.9762 0001351  84.0725 276.0627 14.58556682260278
GOKTURK 2               
1 39030U 12073A   17295.51815830  .00000068  00000-0  18330-4 0  9996
2 39030  97.9774 186.1871 0002565  46.2370 313.9046 14.72673277259291
LANDSAT 8               
1 39084U 13008A   17295.19717557  .00000074  00000-0  26383-4 0  9999
2 39084  98.2114   3.9553 0001280  98.9077 261.2266 14.57111004249551
SARAL                   
1 39086U 13009A   17294.92001594 -.00000016  00000-0  10347-4 0  9999
2 39086  98.5398 120.5402 0000640 155.0724 205.0491 14.32013630243247
GAOFEN 1                
1 39150U 13018A   17295.51937330  .00000046  00000-0  13958-4 0  9996
2 39150  97.9460  17.2604 0019452  10.1126 350.0468 14.76511058242032
VNREDSAT 1              
1 39160U 13021B   17295.47410174  .00000094  00000-0  27441-4 0  9993
2 39160  98.0724   8.5882 0001212  81.9893 278.1450 14.62985560238215
ARIRANG-5 (KOMPSAT-5)   
1 39227U 13042A   17295.49916177  .00000072  00000-0  94560-5 0  9999
2 39227  97.6088 118.5442 0002243  72.8926  11.3700 15.04513167228831
YAOGAN 18               
1 39363U 13059A   17295.50053241  .00000894  00000-0  47108-4 0  9991
2 39363  97.3798   0.9652 0003354  82.7455 107.2219 15.18060693220631
SKYSAT-1                
1 39418U 13066C   17295.15114948 -.00000298  00000-0 -19773-4 0  9990
2 39418  97.6928  16.6591 0020699 219.2229 140.7506 14.98546833214099
DUBAISAT-2              
1 39419U 13066D   17295.20675343 -.00000044  00000-0  11649-5 0  9991
2 39419  97.6677   4.9394 0013065 199.4271 160.6476 14.93717142213462
GPM-CORE                
1 39574U 14009C   17294.90155007  .00006580  00000-0  99165-4 0  9995
2 39574  65.0095 208.9526 0010982 285.4139  74.5793 15.55658274207225
SENTINEL-1A             
1 39634U 14016A   17295.52735753 -.00000032  00000-0  29766-5 0  9999
2 39634  98.1821 301.3607 0001380  74.1647 285.9706 14.59198648189265
KAZEOSAT 1              
1 39731U 14024A   17295.46821594  .00000015  00000-0  17732-4 0  9997
2 39731  98.4111  12.7890 0001246  75.3030 284.8299 14.42023251183230
ALOS-2                  
1 39766U 14029A   17295.53526766 -.00000535  00000-0 -64750-4 0  9992
2 39766  97.9229  31.0356 0001671  89.6120 270.5286 14.79466406184437
KAZEOSAT 2              
1 40010U 14033A   17295.52550508  .00000069  00000-0  15392-4 0  9999
2 40010  97.8819 195.3874 0015448 218.4873 141.5225 14.82071758180801
HODOYOSHI-4             
1 40011U 14033B   17295.52064308  .00000155  00000-0  26848-4 0  9992
2 40011  97.8714 191.5381 0025598 215.0983 144.8535 14.80926688180606
DEIMOS-2                
1 40013U 14033D   17295.40574060  .00000329  00000-0  44987-4 0  9999
2 40013  97.8732 198.0087 0000686  43.7090 316.4145 14.84862979181082
HODOYOSHI-3             
1 40015U 14033F   17295.56695168  .00000262  00000-0  42870-4 0  9996
2 40015  97.8576 185.8153 0035989 222.7349 137.1062 14.78297570180298
SPOT 7                  
1 40053U 14034A   17295.44336425 -.00000046  00000-0  00000+0 0  9999
2 40053  98.2206   1.0972 0001468  89.1041 271.0326 14.58542558176420
SKYSAT-2                
1 40072U 14037D   17295.35158437  .00000083  00000-0  18139-4 0  9995
2 40072  98.3488  51.5945 0006922  10.2443 349.8907 14.81028180177803
WORLDVIEW-3 (WV-3)      
1 40115U 14048A   17295.41790928  .00000179  00000-0  27333-4 0  9991
2 40115  97.8607  14.0175 0000754  46.3200 313.8077 14.84886859172986
YAOGAN 21               
1 40143U 14053A   17295.50768150  .00001429  00000-0  59902-4 0  9996
2 40143  97.3009   5.4977 0011573 101.8059  25.7617 15.25051837173809
YAOGAN 22               
1 40275U 14063A   17295.46674573 -.00000044  00000-0  00000+0 0  9996
2 40275 100.4232  46.6606 0006628 139.2618 220.8989 13.15323172144377
ASNARO                  
1 40298U 14070A   17295.50713063  .00001735  00000-0  85072-4 0  9996
2 40298  97.4870  15.2953 0001999  85.2572  34.1923 15.19459188164196
HODOYOSHI-1             
1 40299U 14070B   17295.30787020  .00000889  00000-0  41308-4 0  9992
2 40299  97.3978  16.0902 0013871  13.0888  59.0157 15.22524282164286
CHUBUSAT-1              
1 40300U 14070C   17295.45901455  .00001138  00000-0  53950-4 0  9995
2 40300  97.3890  12.9869 0021181  20.4418  76.3446 15.21152964164133
QSAT-EOS                
1 40301U 14070D   17295.43216649  .00002256  00000-0  95652-4 0  9995
2 40301  97.3819  13.3811 0027751  13.4507 115.1396 15.23825614164202
TSUBAME                 
1 40302U 14070E   17295.50023024  .00000992  00000-0  53043-4 0  9990
2 40302  97.3660   4.0091 0040907  41.0999  74.8093 15.16673119163649
YAOGAN 23               
1 40305U 14071A   17295.51802378  .00000947  00000-0  49946-4 0  9999
2 40305  97.4358 231.2018 0001798 128.6319 344.8660 15.17951033162748
YAOGAN 24               
1 40310U 14072A   17295.49757767  .00000070  00000-0  17288-4 0  9995
2 40310  98.0172  54.8455 0017914  24.3687 335.8372 14.77154395157516
CBERS 4                 
1 40336U 14079A   17295.48886067  .00000005  00000-0  16639-4 0  9992
2 40336  98.4434   7.5590 0001689  76.8080 283.3294 14.35466487150677
RESURS P2               
1 40360U 14087A   17295.53746622  .00000831  00000-0  29215-4 0  9997
2 40360  97.2766  26.9911 0011927  58.8421 358.1418 15.32100812157880
YAOGAN 26               
1 40362U 14088A   17295.52318498  .00001741  00000-0  69540-4 0  9991
2 40362  97.3474  12.4211 0006039 176.7900 239.9075 15.26452718157188
SMAP                    
1 40376U 15003A   17295.49995420  .00000075  00000-0  23571-4 0  9999
2 40376  98.1254 301.3414 0001819  96.8901 263.2508 14.63379240145510
KOMPSAT-3A              
1 40536U 15014A   17295.47192131 -.00000440  00000-0 -21660-4 0  9990
2 40536  97.4902 232.7458 0008709 260.4593 235.3364 15.12377361142284
SENTINEL-2A             
1 40697U 15028A   17295.45226027  .00000010  00000-0  20338-4 0  9995
2 40697  98.5712   8.5746 0001242  70.2453 289.8864 14.30817027121899
CARBONITE 1 (CBNT-1)    
1 40718U 15032D   17295.52096280  .00000076  00000-0  19004-4 0  9998
2 40718  97.9520 185.3832 0018387  88.8695 271.4628 14.74555648123011
YAOGAN 27               
1 40878U 15040A   17295.41928978 -.00000044  00000-0  00000+0 0  9997
2 40878 100.3817 353.8580 0007710 281.0805  78.9442 13.15956608103552
LAPAN-A2                
1 40931U 15052B   17295.50194350  .00000699  00000-0  83854-5 0  9998
2 40931   5.9992  44.9416 0013229 249.1887 110.6841 14.76549605111817
YAOGAN 28               
1 41026U 15064A   17295.50772201  .00001920  00000-0  68151-4 0  9994
2 41026  97.3326  61.5794 0008601 233.3715 196.6435 15.30239558109225
YAOGAN 29               
1 41038U 15069A   17295.46723732  .00000073  00000-0  16274-4 0  9999
2 41038  97.9122 275.8230 0001534  93.9724 266.1664 14.80415383102913
KENT RIDGE 1            
1 41167U 15077B   17295.28375539  .00000896  00000-0  14839-4 0  9997
2 41167  14.9782 336.3181 0011559 308.6486 124.3968 15.08783448102164
TELEOS 1                
1 41169U 15077D   17295.30133286  .00001631  00000-0  58611-4 0  9997
2 41169  14.9763 333.0851 0010903 312.1843 130.5083 15.09588225102199
JASON-3                 
1 41240U 16002A   17295.19612767 -.00000047  00000-0  60909-4 0  9993
2 41240  66.0416 218.3444 0008020 268.0471  91.9626 12.80929453 82411
SENTINEL-3A             
1 41335U 16011A   17295.51494537  .00000020  00000-0  26124-4 0  9998
2 41335  98.6271   1.1303 0001279  98.6970 261.4355 14.26736034 87510
SENTINEL-1B             
1 41456U 16025A   17295.49258606 -.00000017  00000-0  60224-5 0  9996
2 41456  98.1825 301.1513 0001448  82.1748 277.9616 14.59198680 79427
ZIYUAN 3-2 (ZY 3-2)     
1 41556U 16033A   17295.51463145  .00001145  00000-0  54442-4 0  9991
2 41556  97.4547  11.1133 0002533  96.4392 320.0041 15.21211493 77604
NUSAT-1 (FRESCO)        
1 41557U 16033B   17295.25127649  .00002618  00000-0  99735-4 0  9999
2 41557  97.4553  14.7478 0012441 279.6046  80.3787 15.27568895 77827
NUSAT-2 (BATATA)        
1 41558U 16033C   17295.49473186  .00002416  00000-0  92778-4 0  9992
2 41558  97.4582  15.0591 0011883 277.2504  82.7384 15.27392151 77854
CARTOSAT-2C             
1 41599U 16040A   17295.47023148  .00000819  00000-0  42049-4 0  9993
2 41599  97.4451 355.5468 0013978 358.3984 181.7996 15.19220887 73974
SKYSAT-C1               
1 41601U 16040C   17295.19352374  .00000838  00000-0  39371-4 0  9997
2 41601  97.6005   2.0146 0001843  69.9055 290.2380 15.22425356 74060
LAPAN-A3                
1 41603U 16040E   17295.43097222  .00000353  00000-0  19856-4 0  9992
2 41603  97.4475 355.7950 0013645 358.3148 189.9528 15.19441964 73979
BIROS                   
1 41604U 16040F   17295.36766682  .00000904  00000-0  43808-4 0  9994
2 41604  97.4477 356.4334 0012197 350.8691   9.2320 15.21056747 74011
